GLOBALSTAR M057 [-]     
1 25943U 99058A   23266.48746864 -.00000064  00000+0  26525-3 0  9993
2 25943  52.0012 343.7112 0003092 145.8057 214.2992 12.24771950 89408
GLOBALSTAR M059 [-]     
1 25944U 99058B   23266.78196086 -.00000071  00000+0  18769-3 0  9991
2 25944  52.0000 117.9909 0000951  90.6336 350.3879 11.99953077 86876
GLOBALSTAR M056 [-]     
1 25945U 99058C   23266.63780792 -.00000086  00000+0  19315-4 0  9994
2 25945  51.9953 136.5945 0001473  34.3232 341.2017 12.04769492 86426
GLOBALSTAR M031 [-]     
1 25946U 99058D   23267.38091965 -.00000117  00000+0 -27174-3 0  9992
2 25946  51.9965  64.6788 0001416   6.7647   3.8827 12.15996694 87920
GLOBALSTAR M039 [-]     
1 25961U 99062A   23266.50111669 -.00000076  00000+0  15516-3 0  9991
2 25961  51.9866  35.6554 0003089  39.8039 320.3054 12.62270553100348
GLOBALSTAR M034 [-]     
1 25962U 99062B   23267.33965258 -.00000066  00000+0  23580-3 0  9994
2 25962  51.9859 213.7794 0013948 290.1931 234.3115 11.79415232 63829
GLOBALSTAR M029 [-]     
1 25963U 99062C   23266.58612012 -.00000069  00000+0  21185-3 0  9990
2 25963  51.9839   7.0963 0002075 323.7333 140.4261 11.99867599 93234
GLOBALSTAR M061 [-]     
1 25964U 99062D   23267.31953302 -.00000071  00000+0  15387-3 0  9993
2 25964  51.9822  29.4940 0005746 211.7177 162.1355 11.76750027 47089
